{"type": "FeatureCollection", "features": [{"type": "Feature", "properties": {"norad_id": 28054, "name": "DMSP 5D-3 F16 (USA 172)", "group": "weather", "lat": -65.23212181146522, "lon": 159.1011164627187, "alt_km": 851.4172633189874, "timestamp": "2025-12-07T18:50:16.367734+00:00", "meta": {"OBJECT_NAME": "DMSP 5D-3 F16 (USA 172)", "OBJECT_ID": "2003-048A", "EPOCH": "2025-12-07T07:32:12.851232", "MEAN_MOTION": 14.14421342, "ECCENTRICITY": 0.00067178, "INCLINATION": 99.0049, "RA_OF_ASC_NODE": 358.7283, "ARG_OF_PERICENTER": 337.603, "MEAN_ANOMALY": 32.9363, "EPHEMERIS_TYPE": 0, "CLASSIFICATION_TYPE": "U", "NORAD_CAT_ID": 28054, "ELEMENT_SET_NO": 999, "REV_AT_EPOCH": 14236, "BSTAR": 0.00016497167, "MEAN_MOTION_DOT": 2.7e-06, "MEAN_MOTION_DDOT": 0}, "tle": {"line1": "1 28054U 03048A   25341.31403763  .00000270  00000+0  16497-3 0  9994", "line2": "2 28054  99.0049 358.7283 0006717 337.6030  32.9363 14.14421342142369"}}, "geometry": {"type": "Point", "coordinates": [159.1011164627187, -65.23212181146522]}}, {"type": "Feature", "properties": {"norad_id": 28912, "name": "METEOSAT-9 (MSG-2)", "group": "weather", "lat": -1.6852028351434063, "lon": 45.131268406646946, "alt_km": 35801.63018070698, "timestamp": "2025-12-07T18:50:16.367784+00:00", "meta": {"OBJECT_NAME": "METEOSAT-9 (MSG-2)", "OBJECT_ID": "2005-049B", "EPOCH": "2025-12-06T20:43:46.094016", "MEAN_MOTION": 1.0027315, "ECCENTRICITY": 0.00039617, "INCLINATION": 8.926, "RA_OF_ASC_NODE": 56.0299, "ARG_OF_PERICENTER": 188.459, "MEAN_ANOMALY": 187.9596, "EPHEMERIS_TYPE": 0, "CLASSIFICATION_TYPE": "U", "NORAD_CAT_ID": 28912, "ELEMENT_SET_NO": 999, "REV_AT_EPOCH": 507, "BSTAR": 0, "MEAN_MOTION_DOT": 1.25e-06, "MEAN_MOTION_DDOT": 0}, "tle": {"line1": "1 28912U 05049B   25340.86372794  .00000125  00000+0  00000+0 0  9996", "line2": "2 28912   8.9260  56.0299 0003961 188.4590 187.9596  1.00273150  5070"}}, "geometry": {"type": "Point", "coordinates": [45.131268406646946, -1.6852028351434063]}}, {"type": "Feature", "properties": {"norad_id": 29522, "name": "DMSP 5D-3 F17 (USA 191)", "group": "weather", "lat": 1.4284004660273235, "lon": 167.49687337731748, "alt_km": 842.1536297178309, "timestamp": "2025-12-07T18:50:16.367801+00:00", "meta": {"OBJECT_NAME": "DMSP 5D-3 F17 (USA 191)", "OBJECT_ID": "2006-050A", "EPOCH": "2025-12-07T06:06:58.268448", "MEAN_MOTION": 14.14916111, "ECCENTRICITY": 0.00092467, "INCLINATION": 98.7393, "RA_OF_ASC_NODE": 346.7581, "ARG_OF_PERICENTER": 241.7451, "MEAN_ANOMALY": 118.2789, "EPHEMERIS_TYPE": 0, "CLASSIFICATION_TYPE": "U", "NORAD_CAT_ID": 29522, "ELEMENT_SET_NO": 999, "REV_AT_EPOCH": 98527, "BSTAR": 0.00018675577, "MEAN_MOTION_DOT": 3.18e-06, "MEAN_MOTION_DDOT": 0}, "tle": {"line1": "1 29522U 06050A   25341.25484107  .00000318  00000+0  18676-3 0  9999", "line2": "2 29522  98.7393 346.7581 0009246 241.7451 118.2789 14.14916111985276"}}, "geometry": {"type": "Point", "coordinates": [167.49687337731748, 1.4284004660273235]}}, {"type": "Feature", "properties": {"norad_id": 32958, "name": "FENGYUN 3A", "group": "weather", "lat": 9.105457339431432, "lon": 102.8172151608124, "alt_km": 833.9995717401198, "timestamp": "2025-12-07T18:50:16.367815+00:00", "meta": {"OBJECT_NAME": "FENGYUN 3A", "OBJECT_ID": "2008-026A", "EPOCH": "2025-12-07T06:11:39.369984", "MEAN_MOTION": 14.19511949, "ECCENTRICITY": 0.00081555, "INCLINATION": 98.669, "RA_OF_ASC_NODE": 280.9005, "ARG_OF_PERICENTER": 327.575, "MEAN_ANOMALY": 32.4924, "EPHEMERIS_TYPE": 0, "CLASSIFICATION_TYPE": "U", "NORAD_CAT_ID": 32958, "ELEMENT_SET_NO": 999, "REV_AT_EPOCH": 90817, "BSTAR": 0.00013489445, "MEAN_MOTION_DOT": 2.41e-06, "MEAN_MOTION_DDOT": 0}, "tle": {"line1": "1 32958U 08026A   25341.25809456  .00000241  00000+0  13489-3 0  9991", "line2": "2 32958  98.6690 280.9005 0008155 327.5750  32.4924 14.19511949908172"}}, "geometry": {"type": "Point", "coordinates": [102.8172151608124, 9.105457339431432]}}, {"type": "Feature", "properties": {"norad_id": 35491, "name": "GOES 14", "group": "weather", "lat": 0.2705391258030142, "lon": -108.93271913020621, "alt_km": 35768.5251975257, "timestamp": "2025-12-07T18:50:16.367830+00:00", "meta": {"OBJECT_NAME": "GOES 14", "OBJECT_ID": "2009-033A", "EPOCH": "2025-12-07T07:18:29.919744", "MEAN_MOTION": 1.00272941, "ECCENTRICITY": 0.00041472, "INCLINATION": 1.1847, "RA_OF_ASC_NODE": 85.4709, "ARG_OF_PERICENTER": 153.8136, "MEAN_ANOMALY": 198.356, "EPHEMERIS_TYPE": 0, "CLASSIFICATION_TYPE": "U", "NORAD_CAT_ID": 35491, "ELEMENT_SET_NO": 999, "REV_AT_EPOCH": 466, "BSTAR": 0, "MEAN_MOTION_DOT": -6.4e-07, "MEAN_MOTION_DDOT": 0}, "tle": {"line1": "1 35491U 09033A   25341.30451296 -.00000064  00000+0  00000+0 0  9991", "line2": "2 35491   1.1847  85.4709 0004147 153.8136 198.3560  1.00272941  4665"}}, "geometry": {"type": "Point", "coordinates": [-108.93271913020621, 0.2705391258030142]}}, {"type": "Feature", "properties": {"norad_id": 35951, "name": "DMSP 5D-3 F18 (USA 210)", "group": "weather", "lat": 47.654163627244934, "lon": -51.669762439262186, "alt_km": 831.0187174521634, "timestamp": "2025-12-07T18:50:16.367843+00:00", "meta": {"OBJECT_NAME": "DMSP 5D-3 F18 (USA 210)", "OBJECT_ID": "2009-057A", "EPOCH": "2025-12-07T05:01:52.985856", "MEAN_MOTION": 14.14764117, "ECCENTRICITY": 0.00121228, "INCLINATION": 98.8828, "RA_OF_ASC_NODE": 317.6383, "ARG_OF_PERICENTER": 77.1226, "MEAN_ANOMALY": 283.1301, "EPHEMERIS_TYPE": 0, "CLASSIFICATION_TYPE": "U", "NORAD_CAT_ID": 35951, "ELEMENT_SET_NO": 999, "REV_AT_EPOCH": 83244, "BSTAR": 0.00025005636, "MEAN_MOTION_DOT": 4.38e-06, "MEAN_MOTION_DDOT": 0}, "tle": {"line1": "1 35951U 09057A   25341.20964104  .00000438  00000+0  25006-3 0  9995", "line2": "2 35951  98.8828 317.6383 0012122  77.1226 283.1301 14.14764117832447"}}, "geometry": {"type": "Point", "coordinates": [-51.669762439262186, 47.654163627244934]}}, {"type": "Feature", "properties": {"norad_id": 36411, "name": "EWS-G2 (GOES 15)", "group": "weather", "lat": -0.3172990431219137, "lon": 60.83818838258955, "alt_km": 35811.369013386386, "timestamp": "2025-12-07T18:50:16.367856+00:00", "meta": {"OBJECT_NAME": "EWS-G2 (GOES 15)", "OBJECT_ID": "2010-008A", "EPOCH": "2025-12-07T05:22:02.477856", "MEAN_MOTION": 1.00268273, "ECCENTRICITY": 0.00060089, "INCLINATION": 0.7997, "RA_OF_ASC_NODE": 86.0673, "ARG_OF_PERICENTER": 172.1046, "MEAN_ANOMALY": 320.0453, "EPHEMERIS_TYPE": 0, "CLASSIFICATION_TYPE": "U", "NORAD_CAT_ID": 36411, "ELEMENT_SET_NO": 999, "REV_AT_EPOCH": 5771, "BSTAR": 0, "MEAN_MOTION_DOT": 4.2e-07, "MEAN_MOTION_DDOT": 0}, "tle": {"line1": "1 36411U 10008A   25341.22363979  .00000042  00000+0  00000+0 0  9994", "line2": "2 36411   0.7997  86.0673 0006008 172.1046 320.0453  1.00268273 57710"}}, "geometry": {"type": "Point", "coordinates": [60.83818838258955, -0.3172990431219137]}}, {"type": "Feature", "properties": {"norad_id": 36744, "name": "COMS 1", "group": "weather", "lat": 3.3056444491007526, "lon": 127.45384649760048, "alt_km": 35789.73153120121, "timestamp": "2025-12-07T18:50:16.367869+00:00", "meta": {"OBJECT_NAME": "COMS 1", "OBJECT_ID": "2010-032A", "EPOCH": "2025-12-06T22:02:51.700416", "MEAN_MOTION": 1.00271522, "ECCENTRICITY": 0.00011767, "INCLINATION": 4.3268, "RA_OF_ASC_NODE": 78.0608, "ARG_OF_PERICENTER": 190.6588, "MEAN_ANOMALY": 266.12, "EPHEMERIS_TYPE": 0, "CLASSIFICATION_TYPE": "U", "NORAD_CAT_ID": 36744, "ELEMENT_SET_NO": 999, "REV_AT_EPOCH": 4916, "BSTAR": 0, "MEAN_MOTION_DOT": -3.4e-06, "MEAN_MOTION_DDOT": 0}, "tle": {"line1": "1 36744U 10032A   25340.91865394 -.00000340  00000+0  00000+0 0  9995", "line2": "2 36744   4.3268  78.0608 0001176 190.6588 266.1200  1.00271522 49167"}}, "geometry": {"type": "Point", "coordinates": [127.45384649760048, 3.3056444491007526]}}, {"type": "Feature", "properties": {"norad_id": 37214, "name": "FENGYUN 3B", "group": "weather", "lat": 12.418220130715019, "lon": 19.729506916457495, "alt_km": 828.1129097127814, "timestamp": "2025-12-07T18:50:16.367881+00:00", "meta": {"OBJECT_NAME": "FENGYUN 3B", "OBJECT_ID": "2010-059A", "EPOCH": "2025-12-07T07:12:06.054912", "MEAN_MOTION": 14.14787568, "ECCENTRICITY": 0.00222523, "INCLINATION": 98.9916, "RA_OF_ASC_NODE": 21.2393, "ARG_OF_PERICENTER": 13.1759, "MEAN_ANOMALY": 51.4682, "EPHEMERIS_TYPE": 0, "CLASSIFICATION_TYPE": "U", "NORAD_CAT_ID": 37214, "ELEMENT_SET_NO": 999, "REV_AT_EPOCH": 78029, "BSTAR": 0.0001293105, "MEAN_MOTION_DOT": 2.04e-06, "MEAN_MOTION_DDOT": 0}, "tle": {"line1": "1 37214U 10059A   25341.30007008  .00000204  00000+0  12931-3 0  9999", "line2": "2 37214  98.9916  21.2393 0022252  13.1759  51.4682 14.14787568780293"}}, "geometry": {"type": "Point", "coordinates": [19.729506916457495, 12.418220130715019]}}, {"type": "Feature", "properties": {"norad_id": 37849, "name": "SUOMI NPP", "group": "weather", "lat": 49.71451855462884, "lon": 109.672507301446, "alt_km": 820.9471048927153, "timestamp": "2025-12-07T18:50:16.367892+00:00", "meta": {"OBJECT_NAME": "SUOMI NPP", "OBJECT_ID": "2011-061A", "EPOCH": "2025-12-07T06:23:19.358592", "MEAN_MOTION": 14.19511806, "ECCENTRICITY": 0.0002062, "INCLINATION": 98.7765, "RA_OF_ASC_NODE": 278.6573, "ARG_OF_PERICENTER": 129.6996, "MEAN_ANOMALY": 230.4362, "EPHEMERIS_TYPE": 0, "CLASSIFICATION_TYPE": "U", "NORAD_CAT_ID": 37849, "ELEMENT_SET_NO": 999, "REV_AT_EPOCH": 73121, "BSTAR": 0.00011652476, "MEAN_MOTION_DOT": 2.01e-06, "MEAN_MOTION_DDOT": 0}, "tle": {"line1": "1 37849U 11061A   25341.26619628  .00000201  00000+0  11652-3 0  9995", "line2": "2 37849  98.7765 278.6573 0002062 129.6996 230.4362 14.19511806731215"}}, "geometry": {"type": "Point", "coordinates": [109.672507301446, 49.71451855462884]}}]}